[{"OBJECT_NAME":"YAOGAN-32 2A","OBJECT_ID":"2021-099A","EPOCH":"2023-10-22T14:34:12.270144","MEAN_MOTION":14.60605704,"ECCENTRICITY":0.0001431,"INCLINATION":98.176,"RA_OF_ASC_NODE":57.083,"ARG_OF_PERICENTER":78.7507,"MEAN_ANOMALY":281.3854,"EPHEMERIS_TYPE":0,"CLASSIFICATION_TYPE":"U","NORAD_CAT_ID":49383,"ELEMENT_SET_NO":999,"REV_AT_EPOCH":10478,"BSTAR":0.00033043,"MEAN_MOTION_DOT":1.56e-5,"MEAN_MOTION_DDOT":0},{"OBJECT_NAME":"YAOGAN-32 2B","OBJECT_ID":"2021-099B","EPOCH":"2023-10-22T14:34:01.277472","MEAN_MOTION":14.60606765,"ECCENTRICITY":0.0001289,"INCLINATION":98.1773,"RA_OF_ASC_NODE":57.1914,"ARG_OF_PERICENTER":87.7584,"MEAN_ANOMALY":272.3764,"EPHEMERIS_TYPE":0,"CLASSIFICATION_TYPE":"U","NORAD_CAT_ID":49384,"ELEMENT_SET_NO":999,"REV_AT_EPOCH":10478,"BSTAR":0.00032721,"MEAN_MOTION_DOT":1.545e-5,"MEAN_MOTION_DDOT":0},{"OBJECT_NAME":"SDGSAT 1","OBJECT_ID":"2021-100A","EPOCH":"2023-10-22T14:13:21.796896","MEAN_MOTION":15.19563109,"ECCENTRICITY":0.0003294,"INCLINATION":97.4008,"RA_OF_ASC_NODE":354.243,"ARG_OF_PERICENTER":276.3271,"MEAN_ANOMALY":83.7589,"EPHEMERIS_TYPE":0,"CLASSIFICATION_TYPE":"U","NORAD_CAT_ID":49387,"ELEMENT_SET_NO":999,"REV_AT_EPOCH":10882,"BSTAR":0.00023795,"MEAN_MOTION_DOT":4.994e-5,"MEAN_MOTION_DDOT":0},{"OBJECT_NAME":"YAOGAN-35 A","OBJECT_ID":"2021-101A","EPOCH":"2023-10-22T13:12:02.571264","MEAN_MOTION":15.22154214,"ECCENTRICITY":0.0004068,"INCLINATION":34.9942,"RA_OF_ASC_NODE":244.8289,"ARG_OF_PERICENTER":334.2494,"MEAN_ANOMALY":25.8017,"EPHEMERIS_TYPE":0,"CLASSIFICATION_TYPE":"U","NORAD_CAT_ID":49390,"ELEMENT_SET_NO":999,"REV_AT_EPOCH":10914,"BSTAR":0.00056339,"MEAN_MOTION_DOT":0.00013225,"MEAN_MOTION_DDOT":0},{"OBJECT_NAME":"YAOGAN-35 B","OBJECT_ID":"2021-101B","EPOCH":"2023-10-22T13:07:39.726048","MEAN_MOTION":15.22090361,"ECCENTRICITY":0.0005685,"INCLINATION":34.9945,"RA_OF_ASC_NODE":244.842,"ARG_OF_PERICENTER":333.5338,"MEAN_ANOMALY":26.5085,"EPHEMERIS_TYPE":0,"CLASSIFICATION_TYPE":"U","NORAD_CAT_ID":49391,"ELEMENT_SET_NO":999,"REV_AT_EPOCH":10913,"BSTAR":0.00067145,"MEAN_MOTION_DOT":0.00015748,"MEAN_MOTION_DDOT":0},{"OBJECT_NAME":"YAOGAN-35 C","OBJECT_ID":"2021-101D","EPOCH":"2023-10-22T13:18:26.441280","MEAN_MOTION":15.22206837,"ECCENTRICITY":0.0008404,"INCLINATION":34.9996,"RA_OF_ASC_NODE":244.0125,"ARG_OF_PERICENTER":287.0829,"MEAN_ANOMALY":72.8964,"EPHEMERIS_TYPE":0,"CLASSIFICATION_TYPE":"U","NORAD_CAT_ID":49393,"ELEMENT_SET_NO":999,"REV_AT_EPOCH":10916,"BSTAR":0.00073088,"MEAN_MOTION_DOT":0.00017217,"MEAN_MOTION_DDOT":0},{"OBJECT_NAME":"ASTERISC","OBJECT_ID":"2021-102A","EPOCH":"2023-10-22T08:55:58.378944","MEAN_MOTION":15.12366574,"ECCENTRICITY":0.0012718,"INCLINATION":97.4727,"RA_OF_ASC_NODE":345.5189,"ARG_OF_PERICENTER":341.7209,"MEAN_ANOMALY":18.3563,"EPHEMERIS_TYPE":0,"CLASSIFICATION_TYPE":"U","NORAD_CAT_ID":49395,"ELEMENT_SET_NO":999,"REV_AT_EPOCH":10707,"BSTAR":0.00081234,"MEAN_MOTION_DOT":0.00014069,"MEAN_MOTION_DDOT":0},{"OBJECT_NAME":"TEIKYOSAT-4 (OORURI)","OBJECT_ID":"2021-102B","EPOCH":"2023-10-22T03:09:21.654432","MEAN_MOTION":15.02874614,"ECCENTRICITY":0.0014226,"INCLINATION":97.4995,"RA_OF_ASC_NODE":343.1364,"ARG_OF_PERICENTER":19.9841,"MEAN_ANOMALY":340.1938,"EPHEMERIS_TYPE":0,"CLASSIFICATION_TYPE":"U","NORAD_CAT_ID":49396,"ELEMENT_SET_NO":999,"REV_AT_EPOCH":10683,"BSTAR":0.00020638,"MEAN_MOTION_DOT":2.714e-5,"MEAN_MOTION_DDOT":0},{"OBJECT_NAME":"RAISE 2","OBJECT_ID":"2021-102C","EPOCH":"2023-10-22T02:10:43.959648","MEAN_MOTION":15.04806299,"ECCENTRICITY":0.0013227,"INCLINATION":97.4574,"RA_OF_ASC_NODE":341.9086,"ARG_OF_PERICENTER":46.8159,"MEAN_ANOMALY":313.417,"EPHEMERIS_TYPE":0,"CLASSIFICATION_TYPE":"U","NORAD_CAT_ID":49397,"ELEMENT_SET_NO":999,"REV_AT_EPOCH":10688,"BSTAR":0.00045579,"MEAN_MOTION_DOT":6.389e-5,"MEAN_MOTION_DDOT":0},{"OBJECT_NAME":"Z-SAT","OBJECT_ID":"2021-102E","EPOCH":"2023-10-22T13:57:39.864096","MEAN_MOTION":15.05880594,"ECCENTRICITY":0.0021342,"INCLINATION":97.469,"RA_OF_ASC_NODE":344.744,"ARG_OF_PERICENTER":359.4509,"MEAN_ANOMALY":0.6691,"EPHEMERIS_TYPE":0,"CLASSIFICATION_TYPE":"U","NORAD_CAT_ID":49399,"ELEMENT_SET_NO":999,"REV_AT_EPOCH":10705,"BSTAR":0.00023069,"MEAN_MOTION_DOT":3.307e-5,"MEAN_MOTION_DDOT":0},{"OBJECT_NAME":"HIBARI","OBJECT_ID":"2021-102F","EPOCH":"2023-10-22T02:23:29.453280","MEAN_MOTION":15.08049878,"ECCENTRICITY":0.0018801,"INCLINATION":97.4679,"RA_OF_ASC_NODE":345.0223,"ARG_OF_PERICENTER":351.9011,"MEAN_ANOMALY":8.1911,"EPHEMERIS_TYPE":0,"CLASSIFICATION_TYPE":"U","NORAD_CAT_ID":49400,"ELEMENT_SET_NO":999,"REV_AT_EPOCH":10704,"BSTAR":0.00050293,"MEAN_MOTION_DOT":7.72e-5,"MEAN_MOTION_DDOT":0},{"OBJECT_NAME":"DRUMS","OBJECT_ID":"2021-102G","EPOCH":"2023-10-22T09:43:53.770080","MEAN_MOTION":15.06270977,"ECCENTRICITY":0.0019465,"INCLINATION":97.4687,"RA_OF_ASC_NODE":344.9009,"ARG_OF_PERICENTER":352.6376,"MEAN_ANOMALY":7.4562,"EPHEMERIS_TYPE":0,"CLASSIFICATION_TYPE":"U","NORAD_CAT_ID":49401,"ELEMENT_SET_NO":999,"REV_AT_EPOCH":10705,"BSTAR":0.00029696,"MEAN_MOTION_DOT":4.317e-5,"MEAN_MOTION_DDOT":0},{"OBJECT_NAME":"KOSEN-1","OBJECT_ID":"2021-102H","EPOCH":"2023-10-22T08:40:53.607648","MEAN_MOTION":15.0798731,"ECCENTRICITY":0.0019841,"INCLINATION":97.4618,"RA_OF_ASC_NODE":345.2871,"ARG_OF_PERICENTER":346.8428,"MEAN_ANOMALY":13.2281,"EPHEMERIS_TYPE":0,"CLASSIFICATION_TYPE":"U","NORAD_CAT_ID":49402,"ELEMENT_SET_NO":999,"REV_AT_EPOCH":10711,"BSTAR":0.000421,"MEAN_MOTION_DOT":6.443e-5,"MEAN_MOTION_DDOT":0},{"OBJECT_NAME":"STARLINK-3151","OBJECT_ID":"2021-104A","EPOCH":"2023-10-22T09:03:12.295296","MEAN_MOTION":15.08864815,"ECCENTRICITY":0.0001899,"INCLINATION":53.2156,"RA_OF_ASC_NODE":171.6292,"ARG_OF_PERICENTER":72.9669,"MEAN_ANOMALY":287.1531,"EPHEMERIS_TYPE":0,"CLASSIFICATION_TYPE":"U","NORAD_CAT_ID":49408,"ELEMENT_SET_NO":999,"REV_AT_EPOCH":10739,"BSTAR":0.00053054,"MEAN_MOTION_DOT":8.171e-5,"MEAN_MOTION_DDOT":0},{"OBJECT_NAME":"STARLINK-3075","OBJECT_ID":"2021-104B","EPOCH":"2023-10-22T09:24:23.815584","MEAN_MOTION":15.08854321,"ECCENTRICITY":0.0002007,"INCLINATION":53.2158,"RA_OF_ASC_NODE":171.5511,"ARG_OF_PERICENTER":97.1983,"MEAN_ANOMALY":262.9237,"EPHEMERIS_TYPE":0,"CLASSIFICATION_TYPE":"U","NORAD_CAT_ID":49409,"ELEMENT_SET_NO":999,"REV_AT_EPOCH":10740,"BSTAR":0.00022412,"MEAN_MOTION_DOT":3.282e-5,"MEAN_MOTION_DDOT":0},{"OBJECT_NAME":"STARLINK-3147","OBJECT_ID":"2021-104C","EPOCH":"2023-10-22T09:15:11.224512","MEAN_MOTION":15.08835216,"ECCENTRICITY":0.000184,"INCLINATION":53.2167,"RA_OF_ASC_NODE":171.5897,"ARG_OF_PERICENTER":76.6383,"MEAN_ANOMALY":283.4814,"EPHEMERIS_TYPE":0,"CLASSIFICATION_TYPE":"U","NORAD_CAT_ID":49410,"ELEMENT_SET_NO":999,"REV_AT_EPOCH":10739,"BSTAR":7.9516e-5,"MEAN_MOTION_DOT":9.77e-6,"MEAN_MOTION_DDOT":0},{"OBJECT_NAME":"STARLINK-3162","OBJECT_ID":"2021-104D","EPOCH":"2023-10-21T21:56:49.069248","MEAN_MOTION":15.08860839,"ECCENTRICITY":0.0001229,"INCLINATION":53.2154,"RA_OF_ASC_NODE":163.6937,"ARG_OF_PERICENTER":98.0762,"MEAN_ANOMALY":262.037,"EPHEMERIS_TYPE":0,"CLASSIFICATION_TYPE":"U","NORAD_CAT_ID":49411,"ELEMENT_SET_NO":999,"REV_AT_EPOCH":10746,"BSTAR":0.00029653,"MEAN_MOTION_DOT":4.437e-5,"MEAN_MOTION_DDOT":0}]
