YAOGAN-32 2A            
1 49383U 21099A   23295.60708646  .00001560  00000+0  33043-3 0  9993
2 49383  98.1760  57.0830 0001431  78.7507 281.3854 14.60605704104780
YAOGAN-32 2B            
1 49384U 21099B   23295.60695923  .00001545  00000+0  32721-3 0  9992
2 49384  98.1773  57.1914 0001289  87.7584 272.3764 14.60606765104783
SDGSAT 1                
1 49387U 21100A   23295.59261339  .00004994  00000+0  23795-3 0  9998
2 49387  97.4008 354.2430 0003294 276.3271  83.7589 15.19563109108827
YAOGAN-35 A             
1 49390U 21101A   23295.55002976  .00013225  00000+0  56339-3 0  9996
2 49390  34.9942 244.8289 0004068 334.2494  25.8017 15.22154214109147
YAOGAN-35 B             
1 49391U 21101B   23295.54698757  .00015748  00000+0  67145-3 0  9993
2 49391  34.9945 244.8420 0005685 333.5338  26.5085 15.22090361109137
YAOGAN-35 C             
1 49393U 21101D   23295.55447270  .00017217  00000+0  73088-3 0  9994
2 49393  34.9996 244.0125 0008404 287.0829  72.8964 15.22206837109169
ASTERISC                
1 49395U 21102A   23295.37220346  .00014069  00000+0  81234-3 0  9994
2 49395  97.4727 345.5189 0012718 341.7209  18.3563 15.12366574107079
TEIKYOSAT-4 (OORURI)    
1 49396U 21102B   23295.13150063  .00002714  00000+0  20638-3 0  9992
2 49396  97.4995 343.1364 0014226  19.9841 340.1938 15.02874614106831
RAISE 2                 
1 49397U 21102C   23295.09078657  .00006389  00000+0  45579-3 0  9999
2 49397  97.4574 341.9086 0013227  46.8159 313.4170 15.04806299106885
Z-SAT                   
1 49399U 21102E   23295.58171139  .00003307  00000+0  23069-3 0  9991
2 49399  97.4690 344.7440 0021342 359.4509   0.6691 15.05880594107054
HIBARI                  
1 49400U 21102F   23295.09964645  .00007720  00000+0  50293-3 0  9994
2 49400  97.4679 345.0223 0018801 351.9011   8.1911 15.08049878107040
DRUMS                   
1 49401U 21102G   23295.40548345  .00004317  00000+0  29696-3 0  9997
2 49401  97.4687 344.9009 0019465 352.6376   7.4562 15.06270977107058
KOSEN-1                 
1 49402U 21102H   23295.36173157  .00006443  00000+0  42100-3 0  9995
2 49402  97.4618 345.2871 0019841 346.8428  13.2281 15.07987310107112
STARLINK-3151           
1 49408U 21104A   23295.37722564  .00008171  00000+0  53054-3 0  9996
2 49408  53.2156 171.6292 0001899  72.9669 287.1531 15.08864815107396
STARLINK-3075           
1 49409U 21104B   23295.39194231  .00003282  00000+0  22412-3 0  9995
2 49409  53.2158 171.5511 0002007  97.1983 262.9237 15.08854321107409
STARLINK-3147           
1 49410U 21104C   23295.38554658  .00000977  00000+0  79516-4 0  9995
2 49410  53.2167 171.5897 0001840  76.6383 283.4814 15.08835216107397
STARLINK-3162           
1 49411U 21104D   23294.91445682  .00004437  00000+0  29653-3 0  9991
2 49411  53.2154 163.6937 0001229  98.0762 262.0370 15.08860839107468
